STARLETTE               
1 07646U 75010A   18039.92469915 -.00000131  00000-0  11183-4 0  9996
2 07646  49.8221 263.9738 0205817  66.8357 295.4075 13.82304119172618
LAGEOS 1                
1 08820U 76039A   18039.82599715  .00000026  00000-0  00000+0 0  9997
2 08820 109.8145 214.4421 0044502 235.0835 104.0295  6.38664606718740
AJISAI (EGS)            
1 16908U 86061A   18039.96693400 -.00000094  00000-0  26367-4 0  9995
2 16908  50.0083 166.4819 0011232 337.4073 140.3683 12.44487290100718
LAGEOS 2                
1 22195U 92070B   18039.91446506 -.00000009  00000-0  00000-0 0  9993
2 22195  52.6700  34.4133 0137844 293.9043 180.3975  6.47293810598168
STELLA                  
1 22824U 93061B   18039.93233007 -.00000029  00000-0  68876-5 0  9997
2 22824  98.8541   4.2108 0007472  80.6011 351.8215 14.27371891269629
GRACE-1                 
1 27391U 02012A   18039.89155318  .00170592  11408-4  25426-3 0  9992
2 27391  88.9761 285.4964 0008569  90.5166 332.4761 16.04736058895015
LARES                   
1 38077U 12006A   18039.76571016 -.00000013  00000-0  15618-3 0  9997
2 38077  69.4911 102.6353 0007377  29.3335 330.8100 12.54931092274459
